CCSDS_OEM_VERS = 1.0
CREATION_DATE  = 2017-05-11T11:22:54
ORIGINATOR     = GMAT USER

META_START
OBJECT_NAME          = MOPSSat_alt_35785_km_RAAN_90_164
OBJECT_ID            = SatId
CENTER_NAME          = Earth
REF_FRAME            = EME2000
TIME_SYSTEM          = UTC
START_TIME           = 2017-01-01T00:00:00.000
USEABLE_START_TIME   = 2017-01-01T00:00:00.000
USEABLE_STOP_TIME    = 2017-01-02T00:00:00.000
STOP_TIME            = 2017-01-02T00:00:00.000
INTERPOLATION        = Lagrange
INTERPOLATION_DEGREE = 7 
META_STOP


                                                                                   

2017-01-01T16:20:50.000   2.289930629455392e+04  -5.623743178035507e+04  -4.270643153610084e+01   1.254765559813129e+00   1.448419738248403e+00  -2.338427803380931e-03
2017-01-01T16:21:00.000   2.291185191155954e+04  -5.622294257645316e+04  -4.272981233450707e+01   1.254357749622720e+00   1.449421041563682e+00  -2.337731706269434e-03
2017-01-01T16:21:10.000   2.292439344858982e+04  -5.620844335852038e+04  -4.275318616842934e+01   1.253949540766281e+00   1.450422516669052e+00  -2.337034861896796e-03
2017-01-01T16:21:20.000   2.293693090152293e+04  -5.619393412499334e+04  -4.277655303014296e+01   1.253540932907329e+00   1.451424163697097e+00  -2.336337269610246e-03
2017-01-01T16:21:30.000   2.294946426626873e+04  -5.617941487426599e+04  -4.279991291198218e+01   1.253131925707727e+00   1.452425982783280e+00  -2.335638928754079e-03
2017-01-01T16:21:40.000   2.296199353870510e+04  -5.616488560476438e+04  -4.282326580622112e+01   1.252722518829773e+00   1.453427974060822e+00  -2.334939838673238e-03
2017-01-01T16:21:50.000   2.297451871496053e+04  -5.615034631461848e+04  -4.284661170560102e+01   1.252312711926968e+00   1.454430137683322e+00  -2.334239998697547e-03
2017-01-01T16:22:00.000   2.298703979113140e+04  -5.613579700199007e+04  -4.286995060280286e+01   1.251902504653242e+00   1.455432473802136e+00  -2.333539408157460e-03
2017-01-01T16:22:10.000   2.299955676334596e+04  -5.612123766499879e+04  -4.289328249056683e+01   1.251491896660880e+00   1.456434982571499e+00  -2.332838066380525e-03
2017-01-01T16:22:20.000   2.301206962760166e+04  -5.610666830190930e+04  -4.291660736138908e+01   1.251080887605777e+00   1.457437664135552e+00  -2.332135972700354e-03
2017-01-01T16:22:30.000   2.302457837988604e+04  -5.609208891099273e+04  -4.293992520774715e+01   1.250669477143550e+00   1.458440518637971e+00  -2.331433126449984e-03
2017-01-01T16:22:40.000   2.303708301617660e+04  -5.607749949052617e+04  -4.296323602209942e+01   1.250257664929516e+00   1.459443546221961e+00  -2.330729526961837e-03
2017-01-01T16:22:50.000   2.304958353232098e+04  -5.606290003893409e+04  -4.298653979666199e+01   1.249845450622697e+00   1.460446747020601e+00  -2.330025173574582e-03
2017-01-01T16:23:00.000   2.306207992419847e+04  -5.604829055459843e+04  -4.300983652370976e+01   1.249432833880444e+00   1.461450121169852e+00  -2.329320065623917e-03
2017-01-01T16:23:10.000   2.307457218765508e+04  -5.603367103593455e+04  -4.303312619545529e+01   1.249019814360587e+00   1.462453668803332e+00  -2.328614202446269e-03
2017-01-01T16:23:20.000   2.308706031879024e+04  -5.601904148105585e+04  -4.305640880458333e+01   1.248606391711957e+00   1.463457390075352e+00  -2.327907583362586e-03
2017-01-01T16:23:30.000   2.309954431366934e+04  -5.600440188811009e+04  -4.307968434371492e+01   1.248192565583884e+00   1.464461285137819e+00  -2.327200207694567e-03
2017-01-01T16:23:40.000   2.311202416839795e+04  -5.598975225519251e+04  -4.310295280554580e+01   1.247778335623747e+00   1.465465354146209e+00  -2.326492074760483e-03
2017-01-01T16:23:50.000   2.312449987892211e+04  -5.597509258057874e+04  -4.312621418247403e+01   1.247363701483542e+00   1.466469597243540e+00  -2.325783183886386e-03
2017-01-01T16:24:00.000   2.313697144119321e+04  -5.596042286253285e+04  -4.314946846690742e+01   1.246948662814469e+00   1.467474014573592e+00  -2.325073534396868e-03
2017-01-01T16:24:10.000   2.314943885112997e+04  -5.594574309935154e+04  -4.317271565119255e+01   1.246533219268176e+00   1.468478606277856e+00  -2.324363125617195e-03
2017-01-01T16:24:20.000   2.316190210463338e+04  -5.593105328934767e+04  -4.319595572764277e+01   1.246117370496303e+00   1.469483372496711e+00  -2.323651956872510e-03
2017-01-01T16:24:30.000   2.317436119759347e+04  -5.591635343084137e+04  -4.321918868855064e+01   1.245701116150217e+00   1.470488313369987e+00  -2.322940027487401e-03
2017-01-01T16:24:40.000   2.318681612590418e+04  -5.590164352214248e+04  -4.324241452621588e+01   1.245284455880523e+00   1.471493429038177e+00  -2.322227336785046e-03
2017-01-01T16:24:50.000   2.319926688547064e+04  -5.588692356154296e+04  -4.326563323295860e+01   1.244867389336847e+00   1.472498719642979e+00  -2.321513884086855e-03
2017-01-01T16:25:00.000   2.321171347222343e+04  -5.587219354729879e+04  -4.328884480114635e+01   1.244449916167319e+00   1.473504185328502e+00  -2.320799668711575e-03
2017-01-01T16:25:10.000   2.322415588208096e+04  -5.585745347767504e+04  -4.331204922312356e+01   1.244032036019848e+00   1.474509826238200e+00  -2.320084689977482e-03
2017-01-01T16:25:20.000   2.323659411111297e+04  -5.584270335075059e+04  -4.333524649151678e+01   1.243613748536583e+00   1.475515642528142e+00  -2.319368947192881e-03
2017-01-01T16:25:30.000   2.324902815534228e+04  -5.582794316465461e+04  -4.335843659886471e+01   1.243195053360615e+00   1.476521634350937e+00  -2.318652439667593e-03
2017-01-01T16:25:40.000   2.326145801081971e+04  -5.581317291747720e+04  -4.338161953775816e+01   1.242775950133447e+00   1.477527801861809e+00  -2.317935166708624e-03
2017-01-01T16:25:50.000   2.327388367333351e+04  -5.579839260761476e+04  -4.340479530029782e+01   1.242356438504794e+00   1.478534145195069e+00  -2.317217127636930e-03
2017-01-01T16:26:00.000   2.328630513869997e+04  -5.578360223342469e+04  -4.342796387863651e+01   1.241936518122779e+00   1.479540664487645e+00  -2.316498321770647e-03
2017-01-01T16:26:10.000   2.329872240268837e+04  -5.576880179331450e+04  -4.345112526483912e+01   1.241516188636469e+00   1.480547359873003e+00  -2.315778748429422e-03
2017-01-01T16:26:20.000   2.331113546121972e+04  -5.575399128550655e+04  -4.347427945125323e+01   1.241095449689196e+00   1.481554231497209e+00  -2.315058406922987e-03
2017-01-01T16:26:30.000   2.332354431020265e+04  -5.573917070823200e+04  -4.349742643020312e+01   1.240674300924057e+00   1.482561279505678e+00  -2.314337296560572e-03
2017-01-01T16:26:40.000   2.333594894557129e+04  -5.572434005968612e+04  -4.352056619406029e+01   1.240252741982646e+00   1.483568504046235e+00  -2.313615416648733e-03
2017-01-01T16:26:50.000   2.334834936327034e+04  -5.570949933804494e+04  -4.354369873521585e+01   1.239830772505521e+00   1.484575905267929e+00  -2.312892766492146e-03
2017-01-01T16:27:00.000   2.336074555924831e+04  -5.569464854147430e+04  -4.356682404606773e+01   1.239408392132457e+00   1.485583483320475e+00  -2.312169345394052e-03
2017-01-01T16:27:10.000   2.337313752944276e+04  -5.567978766814739e+04  -4.358994211899314e+01   1.238985600502960e+00   1.486591238353034e+00  -2.311445152657120e-03
2017-01-01T16:27:20.000   2.338552526977308e+04  -5.566491671625270e+04  -4.361305294633516e+01   1.238562397256466e+00   1.487599170513671e+00  -2.310720187583805e-03
2017-01-01T16:27:30.000   2.339790877612614e+04  -5.565003568401207e+04  -4.363615652037606e+01   1.238138782032882e+00   1.488607279948145e+00  -2.309994449477258e-03
2017-01-01T16:27:40.000   2.341028804439390e+04  -5.563514456963530e+04  -4.365925283340724e+01   1.237714754471272e+00   1.489615566802987e+00  -2.309267937639088e-03
2017-01-01T16:27:50.000   2.342266307031058e+04  -5.562024337151726e+04  -4.368234187742560e+01   1.237290314215496e+00   1.490624031212189e+00  -2.308540651379024e-03
2017-01-01T16:28:00.000   2.343503384965002e+04  -5.560533208799925e+04  -4.370542364450161e+01   1.236865460907390e+00   1.491632673313324e+00  -2.307812590003226e-03
2017-01-01T16:28:10.000   2.344740037815220e+04  -5.559041071745755e+04  -4.372849812664240e+01   1.236440194189297e+00   1.492641493241554e+00  -2.307083752818627e-03
2017-01-01T16:28:20.000   2.345976265180776e+04  -5.557547925796037e+04  -4.375156531632247e+01   1.236014513694288e+00   1.493650491152837e+00  -2.306354139116155e-03
2017-01-01T16:28:30.000   2.347212066657416e+04  -5.556053770760999e+04  -4.377462520595426e+01   1.235588419055911e+00   1.494659667200774e+00  -2.305623748187462e-03
2017-01-01T16:28:40.000   2.348447441844009e+04  -5.554558606446554e+04  -4.379767778800815e+01   1.235161909905986e+00   1.495669021541862e+00  -2.304892579321133e-03
2017-01-01T16:28:50.000   2.349682390326491e+04  -5.553062432673494e+04  -4.382072305471297e+01   1.234734985880074e+00   1.496678554322438e+00  -2.304160631812062e-03
2017-01-01T16:29:00.000   2.350916911689790e+04  -5.551565249263296e+04  -4.384376099827862e+01   1.234307646613432e+00   1.497688265688361e+00  -2.303427904954519e-03
2017-01-01T16:29:10.000   2.352151005517822e+04  -5.550067056038028e+04  -4.386679161089566e+01   1.233879891740990e+00   1.498698155785021e+00  -2.302694398042110e-03
2017-01-01T16:29:20.000   2.353384671381658e+04  -5.548567852834925e+04  -4.388981488451486e+01   1.233451720901515e+00   1.499708224747609e+00  -2.301960110374925e-03
2017-01-01T16:29:30.000   2.354617908855473e+04  -5.547067639486821e+04  -4.391283081114450e+01   1.233023133732026e+00   1.500718472714214e+00  -2.301225041249947e-03
2017-01-01T16:29:40.000   2.355850717510255e+04  -5.545566415829854e+04  -4.393583938273316e+01   1.232594129869979e+00   1.501728899820664e+00  -2.300489189964811e-03
2017-01-01T16:29:50.000   2.357083096941619e+04  -5.544064181669588e+04  -4.395884059168892e+01   1.232164708943593e+00   1.502739506223333e+00  -2.299752555801212e-03
